0 IRIDIUM 33 DEB
1 35851U 97051TB  13283.44208486  .00009118  00000-0  34755-2 0  4054
2 35851 086.4296 151.8557 0069287 044.0151 079.0075 14.29418454234692
0 IRIDIUM 33 DEB
1 35851U 97051TB  13285.40244449  .00007087  00000-0  26996-2 0  4074
2 35851 086.4303 151.0499 0069194 037.9308 086.6518 14.29441823234973
0 IRIDIUM 33 DEB
1 35851U 97051TB  13287.43103192  .00007688  00000-0  29276-2 0  4080
2 35851 086.4304 150.2163 0069088 031.6816 085.5299 14.29467625235265
0 IRIDIUM 33 DEB
1 35851U 97051TB  13288.88932874  .00009535  00000-0  36299-2 0  4094
2 35851 086.4303 149.6170 0068968 027.1633 029.9250 14.29496548235475
0 IRIDIUM 33 DEB
1 35851U 97051TB  13290.37244478  .00009710  00000-0  36957-2 0  4105
2 35851 086.4301 149.0075 0068839 022.5643 102.1762 14.29517436235683
0 IRIDIUM 33 DEB
1 35851U 97051TB  13292.40194683  .00008106  00000-0  30833-2 0  4119
2 35851 086.4293 148.1741 0068683 016.3297 106.3160 14.29547622235976
0 IRIDIUM 33 DEB
1 35851U 97051TB  13293.57417543  .00008399  00000-0  31941-2 0  4127
2 35851 086.4293 147.6923 0068510 012.6487 018.9669 14.29564321236148
0 IRIDIUM 33 DEB
1 35851U 97051TB  13295.34199138  .00009810  00000-0  37302-2 0  4138
2 35851 086.4308 146.9640 0068239 007.0627 116.8647 14.29588510236392
